[{"OBJECT_NAME":"ZY-1 02D","OBJECT_ID":"2019-059A","EPOCH":"2026-03-09T22:47:25.027872","MEAN_MOTION":14.35449537,"ECCENTRICITY":0.00025574,"INCLINATION":98.3302,"RA_OF_ASC_NODE":133.9003,"ARG_OF_PERICENTER":74.5944,"MEAN_ANOMALY":285.5525,"EPHEMERIS_TYPE":0,"CLASSIFICATION_TYPE":"U","NORAD_CAT_ID":44528,"ELEMENT_SET_NO":999,"REV_AT_EPOCH":34010,"BSTAR":2.8589968e-5,"MEAN_MOTION_DOT":4.0e-7,"MEAN_MOTION_DDOT":0},{"OBJECT_NAME":"CZ-6A DEB","OBJECT_ID":"2024-140YM","EPOCH":"2026-03-09T14:15:37.372320","MEAN_MOTION":14.34138836,"ECCENTRICITY":0.004481,"INCLINATION":88.9779,"RA_OF_ASC_NODE":283.3666,"ARG_OF_PERICENTER":204.493,"MEAN_ANOMALY":155.414,"EPHEMERIS_TYPE":0,"CLASSIFICATION_TYPE":"U","NORAD_CAT_ID":61420,"ELEMENT_SET_NO":999,"REV_AT_EPOCH":7647,"BSTAR":0.00085165,"MEAN_MOTION_DOT":2.424e-5,"MEAN_MOTION_DDOT":0}]
